start=new Date('2021-10-18T00:00:00.000Z').valueOf();
sats=[{"RCS_SIZE":"LARGE","ELEMENT_SET_NO":"999","REV_AT_EPOCH":"8796","MEAN_MOTION_DDOT":"0.0000000000000","OBJECT_TYPE":"PAYLOAD","RA_OF_ASC_NODE":"167.4798","SEMIMAJOR_AXIS":"6925.345","BSTAR":"0.00025513000000","TLE_LINE1":"1 45375U 20019R   21290.64131337  .00003521  00000-0  25513-3 0  9998","REF_FRAME":"TEME","TIME_SYSTEM":"UTC","SITE":"AFETR","PERIOD":"95.592","CENTER_NAME":"EARTH","TLE_LINE2":"2 45375  53.0544 167.4798 0001858  70.2750 289.8439 15.06401313 87969","COUNTRY_CODE":"US","OBJECT_NAME":"STARLINK-1302","LAUNCH_DATE":"2020-03-18","INCLINATION":"53.0544","CLASSIFICATION_TYPE":"U","DECAY_DATE":null,"FILE":"3168566","ARG_OF_PERICENTER":"70.2750","EPHEMERIS_TYPE":"0","MEAN_ANOMALY":"289.8439","MEAN_MOTION_DOT":"0.00003521","OBJECT_ID":"2020-019R","APOAPSIS":"548.496","EPOCH":"2021-10-17T15:23:29.475168","ECCENTRICITY":"0.00018580","GP_ID":"187443294","PERIAPSIS":"545.923","NORAD_CAT_ID":"45375","MEAN_ELEMENT_THEORY":"SGP4","MEAN_MOTION":"15.06401313"},{"MEAN_MOTION":"15.06396664","PERIAPSIS":"545.794","GP_ID":"187442042","MEAN_ELEMENT_THEORY":"SGP4","NORAD_CAT_ID":"45376","OBJECT_ID":"2020-019S","APOAPSIS":"548.654","ECCENTRICITY":"0.00020650","EPOCH":"2021-10-17T09:27:51.680160","DECAY_DATE":null,"FILE":"3168566","ARG_OF_PERICENTER":"70.6130","EPHEMERIS_TYPE":"0","MEAN_ANOMALY":"289.5082","MEAN_MOTION_DOT":"0.00002073","INCLINATION":"53.0543","CLASSIFICATION_TYPE":"U","LAUNCH_DATE":"2020-03-18","COUNTRY_CODE":"US","OBJECT_NAME":"STARLINK-1304","SITE":"AFETR","PERIOD":"95.592","CENTER_NAME":"EARTH","TLE_LINE2":"2 45376  53.0543 168.5870 0002065  70.6130 289.5082 15.06396664 87928","BSTAR":"0.00015802000000","TLE_LINE1":"1 45376U 20019S   21290.39434815  .00002073  00000-0  15802-3 0  9999","REF_FRAME":"TEME","TIME_SYSTEM":"UTC","SEMIMAJOR_AXIS":"6925.359","OBJECT_TYPE":"PAYLOAD","RA_OF_ASC_NODE":"168.5870","REV_AT_EPOCH":"8792","MEAN_MOTION_DDOT":"0.0000000000000","RCS_SIZE":"LARGE","ELEMENT_SET_NO":"999"},{"ELEMENT_SET_NO":"999","RCS_SIZE":"LARGE","OBJECT_TYPE":"PAYLOAD","RA_OF_ASC_NODE":"169.9613","MEAN_MOTION_DDOT":"0.0000000000000","REV_AT_EPOCH":"8788","SEMIMAJOR_AXIS":"6925.384","TLE_LINE2":"2 45377  53.0532 169.9613 0001781  70.5413 289.5769 15.06388466 87882","PERIOD":"95.593","CENTER_NAME":"EARTH","SITE":"AFETR","TIME_SYSTEM":"UTC","REF_FRAME":"TEME","TLE_LINE1":"1 45377U 20019T   21290.08841984  .00001614  00000-0  12729-3 0  9990","BSTAR":"0.00012729000000","LAUNCH_DATE":"2020-03-18","OBJECT_NAME":"STARLINK-1305","COUNTRY_CODE":"US","CLASSIFICATION_TYPE":"U","INCLINATION":"53.0532","ECCENTRICITY":"0.00017810","EPOCH":"2021-10-17T02:07:19.474176","APOAPSIS":"548.482","OBJECT_ID":"2020-019T","MEAN_MOTION_DOT":"0.00001614","MEAN_ANOMALY":"289.5769","EPHEMERIS_TYPE":"0","FILE":"3168566","ARG_OF_PERICENTER":"70.5413","DECAY_DATE":null,"MEAN_MOTION":"15.06388466","GP_ID":"187442292","MEAN_ELEMENT_THEORY":"SGP4","PERIAPSIS":"546.015","NORAD_CAT_ID":"45377"},{"SEMIMAJOR_AXIS":"6925.397","BSTAR":"-0.00001129000000","TLE_LINE1":"1 45378U 20019U   21290.14370129 -.00000450  00000-0 -11290-4 0  9998","REF_FRAME":"TEME","TIME_SYSTEM":"UTC","SITE":"AFETR","PERIOD":"95.593","CENTER_NAME":"EARTH","TLE_LINE2":"2 45378  53.0545 169.7142 0002015  67.7625 292.3578 15.06384062 87895","RCS_SIZE":"LARGE","ELEMENT_SET_NO":"999","REV_AT_EPOCH":"8789","MEAN_MOTION_DDOT":"0.0000000000000","OBJECT_TYPE":"PAYLOAD","RA_OF_ASC_NODE":"169.7142","DECAY_DATE":null,"FILE":"3168566","ARG_OF_PERICENTER":"67.7625","MEAN_ANOMALY":"292.3578","EPHEMERIS_TYPE":"0","MEAN_MOTION_DOT":"-0.00000450","OBJECT_ID":"2020-019U","APOAPSIS":"548.658","EPOCH":"2021-10-17T03:26:55.791456","ECCENTRICITY":"0.00020150","GP_ID":"187443044","NORAD_CAT_ID":"45378","PERIAPSIS":"545.867","MEAN_ELEMENT_THEORY":"SGP4","MEAN_MOTION":"15.06384062","COUNTRY_CODE":"US","OBJECT_NAME":"STARLINK-1310","LAUNCH_DATE":"2020-03-18","INCLINATION":"53.0545","CLASSIFICATION_TYPE":"U"},{"ARG_OF_PERICENTER":"61.7262","FILE":"3168566","DECAY_DATE":null,"MEAN_MOTION_DOT":"0.00001173","EPHEMERIS_TYPE":"0","MEAN_ANOMALY":"298.3887","OBJECT_ID":"2020-019V","ECCENTRICITY":"0.00015910","EPOCH":"2021-10-17T16:16:33.037824","APOAPSIS":"548.306","GP_ID":"187443794","PERIAPSIS":"546.103","MEAN_ELEMENT_THEORY":"SGP4","NORAD_CAT_ID":"45379","MEAN_MOTION":"15.06402981","OBJECT_NAME":"STARLINK-1319","COUNTRY_CODE":"US","LAUNCH_DATE":"2020-03-18","INCLINATION":"53.0532","CLASSIFICATION_TYPE":"U","SEMIMAJOR_AXIS":"6925.339","TLE_LINE1":"1 45379U 20019V   21290.67816016  .00001173  00000-0  97608-4 0  9995","BSTAR":"0.00009760800000","TIME_SYSTEM":"UTC","REF_FRAME":"TEME","SITE":"AFETR","TLE_LINE2":"2 45379  53.0532 167.3166 0001591  61.7262 298.3887 15.06402981 87970","PERIOD":"95.592","CENTER_NAME":"EARTH","RCS_SIZE":"LARGE","ELEMENT_SET_NO":"999","REV_AT_EPOCH":"8797","MEAN_MOTION_DDOT":"0.0000000000000","OBJECT_TYPE":"PAYLOAD","RA_OF_ASC_NODE":"167.3166"},{"RCS_SIZE":"LARGE","ELEMENT_SET_NO":"999","OBJECT_TYPE":"PAYLOAD","RA_OF_ASC_NODE":"147.6228","REV_AT_EPOCH":"8823","MEAN_MOTION_DDOT":"0.0000000000000","SEMIMAJOR_AXIS":"6925.364","SITE":"AFETR","TLE_LINE2":"2 45380  53.0545 147.6228 0001567  71.2940 288.8219 15.06394972 88231","CENTER_NAME":"EARTH","PERIOD":"95.592","TLE_LINE1":"1 45380U 20019W   21290.60998515  .00003529  00000-0  25570-3 0  9990","BSTAR":"0.00025570000000","TIME_SYSTEM":"UTC","REF_FRAME":"TEME","LAUNCH_DATE":"2020-03-18","OBJECT_NAME":"STARLINK-1207","COUNTRY_CODE":"US","INCLINATION":"53.0545","CLASSIFICATION_TYPE":"U","OBJECT_ID":"2020-019W","ECCENTRICITY":"0.00015670","EPOCH":"2021-10-17T14:38:22.716960","APOAPSIS":"548.314","FILE":"3168566","ARG_OF_PERICENTER":"71.2940","DECAY_DATE":null,"MEAN_MOTION_DOT":"0.00003529","EPHEMERIS_TYPE":"0","MEAN_ANOMALY":"288.8219","MEAN_MOTION":"15.06394972","PERIAPSIS":"546.144","GP_ID":"187442542","NORAD_CAT_ID":"45380","MEAN_ELEMENT_THEORY":"SGP4"},{"OBJECT_TYPE":"PAYLOAD","RA_OF_ASC_NODE":"149.9520","REV_AT_EPOCH":"8815","MEAN_MOTION_DDOT":"0.0000000000000","RCS_SIZE":"LARGE","ELEMENT_SET_NO":"999","SITE":"AFETR","PERIOD":"95.593","CENTER_NAME":"EARTH","TLE_LINE2":"2 45381  53.0525 149.9520 0001594  66.8493 293.2664 15.06380010 88156","BSTAR":"0.00023161000000","TLE_LINE1":"1 45381U 20019X   21290.09026041  .00003168  00000-0  23161-3 0  9993","REF_FRAME":"TEME","TIME_SYSTEM":"UTC","SEMIMAJOR_AXIS":"6925.410","INCLINATION":"53.0525","CLASSIFICATION_TYPE":"U","LAUNCH_DATE":"2020-03-18","COUNTRY_CODE":"US","OBJECT_NAME":"STARLINK-1258","MEAN_MOTION":"15.06380010","GP_ID":"187442792","PERIAPSIS":"546.171","NORAD_CAT_ID":"45381","MEAN_ELEMENT_THEORY":"SGP4","OBJECT_ID":"2020-019X","APOAPSIS":"548.379","ECCENTRICITY":"0.00015940","EPOCH":"2021-10-17T02:09:58.499424","DECAY_DATE":null,"FILE":"3168566","ARG_OF_PERICENTER":"66.8493","MEAN_ANOMALY":"293.2664","EPHEMERIS_TYPE":"0","MEAN_MOTION_DOT":"0.00003168"},{"MEAN_MOTION":"15.06394438","GP_ID":"187443544","PERIAPSIS":"546.040","NORAD_CAT_ID":"45382","MEAN_ELEMENT_THEORY":"SGP4","ECCENTRICITY":"0.00017190","EPOCH":"2021-10-17T08:00:18.250848","APOAPSIS":"548.421","OBJECT_ID":"2020-019Y","MEAN_MOTION_DOT":"0.00004429","EPHEMERIS_TYPE":"0","MEAN_ANOMALY":"295.3964","FILE":"3168566","ARG_OF_PERICENTER":"64.7203","DECAY_DATE":null,"CLASSIFICATION_TYPE":"U","INCLINATION":"53.0541","LAUNCH_DATE":"2020-03-18","OBJECT_NAME":"STARLINK-1264","COUNTRY_CODE":"US","TLE_LINE2":"2 45382  53.0541 148.8630 0001719  64.7203 295.3964 15.06394438 88010","CENTER_NAME":"EARTH","PERIOD":"95.592","SITE":"AFETR","TIME_SYSTEM":"UTC","REF_FRAME":"TEME","TLE_LINE1":"1 45382U 20019Y   21290.33354457  .00004429  00000-0  31607-3 0  9991","BSTAR":"0.00031607000000","SEMIMAJOR_AXIS":"6925.366","RA_OF_ASC_NODE":"148.8630","OBJECT_TYPE":"PAYLOAD","MEAN_MOTION_DDOT":"0.0000000000000","REV_AT_EPOCH":"8801","ELEMENT_SET_NO":"999","RCS_SIZE":"LARGE"},{"REV_AT_EPOCH":"8824","MEAN_MOTION_DDOT":"0.0000000000000","RA_OF_ASC_NODE":"147.3021","OBJECT_TYPE":"PAYLOAD","RCS_SIZE":"LARGE","ELEMENT_SET_NO":"999","BSTAR":"0.00007669600000","TLE_LINE1":"1 45383U 20019Z   21290.68001187  .00000861  00000-0  76696-4 0  9993","REF_FRAME":"TEME","TIME_SYSTEM":"UTC","SITE":"AFETR","CENTER_NAME":"EARTH","PERIOD":"95.593","TLE_LINE2":"2 45383  53.0523 147.3021 0001757  73.3245 286.7936 15.06386662 88241","SEMIMAJOR_AXIS":"6925.389","INCLINATION":"53.0523","CLASSIFICATION_TYPE":"U","COUNTRY_CODE":"US","OBJECT_NAME":"STARLINK-1266","LAUNCH_DATE":"2020-03-18","MEAN_ELEMENT_THEORY":"SGP4","GP_ID":"187443295","PERIAPSIS":"546.038","NORAD_CAT_ID":"45383","MEAN_MOTION":"15.06386662","DECAY_DATE":null,"FILE":"3168566","ARG_OF_PERICENTER":"73.3245","MEAN_ANOMALY":"286.7936","EPHEMERIS_TYPE":"0","MEAN_MOTION_DOT":"0.00000861","OBJECT_ID":"2020-019Z","APOAPSIS":"548.471","ECCENTRICITY":"0.00017570","EPOCH":"2021-10-17T16:19:13.025568"},{"TLE_LINE1":"1 45384U 20019AA  21290.33720721  .00001091  00000-0  92159-4 0  9996","BSTAR":"0.00009215900000","TIME_SYSTEM":"UTC","REF_FRAME":"TEME","SITE":"AFETR","TLE_LINE2":"2 45384  53.0546 148.8263 0001826  76.1755 283.9437 15.06398601 88190","PERIOD":"95.592","CENTER_NAME":"EARTH","SEMIMAJOR_AXIS":"6925.353","REV_AT_EPOCH":"8819","MEAN_MOTION_DDOT":"0.0000000000000","OBJECT_TYPE":"PAYLOAD","RA_OF_ASC_NODE":"148.8263","RCS_SIZE":"LARGE","ELEMENT_SET_NO":"999","GP_ID":"187442043","NORAD_CAT_ID":"45384","PERIAPSIS":"545.953","MEAN_ELEMENT_THEORY":"SGP4","MEAN_MOTION":"15.06398601","FILE":"3168566","ARG_OF_PERICENTER":"76.1755","DECAY_DATE":null,"MEAN_MOTION_DOT":"0.00001091","MEAN_ANOMALY":"283.9437","EPHEMERIS_TYPE":"0","OBJECT_ID":"2020-019AA","EPOCH":"2021-10-17T08:05:34.702944","ECCENTRICITY":"0.00018260","APOAPSIS":"548.482","INCLINATION":"53.0546","CLASSIFICATION_TYPE":"U","OBJECT_NAME":"STARLINK-1267","COUNTRY_CODE":"US","LAUNCH_DATE":"2020-03-18"}];
